{"type":"FeatureCollection","features":[{"type":"Feature","properties":{"name":"Italia","boundary":"administrative","admin_level":"2","type":"boundary","osm_id":365331,"wikidata":"Q38"},"geometry":{"type":"MultiPolygon","coordinates":[[[[6.6342862,45.1152153],[6.6726052,45.1244462],[6.6804211,45.1402969],[6.7114175,45.1448441],[6.7401496,45.136671],[6.7682444,45.159765],[6.8472416,45.1355412],[6.8477966,45.1273253],[6.8923734,45.1368354],[6.8978334,45.1427494],[6.8841425,45.156767],[6.8915976,45.1670208],[6.9472475,45.1704258],[6.9429575,45.1761522],[6.9554895,45.1803442],[6.95387,45.1907985],[6.967287,45.195888],[6.9606471,45.2029182],[6.9657708,45.2078758],[6.9930951,45.2099175],[7.0034728,45.2198178],[7.026311,45.2153745],[7.047217,45.2257281],[7.067564,45.2099877],[7.0799457,45.2129562],[7.0808714,45.2243512],[7.1374816,45.2563719],[7.1292988,45.2712562],[7.1353219,45.2825764],[7.1218296,45.2951331],[7.109395,45.3277094],[7.1347,45.331186],[7.1336813,45.3472144],[7.163735,45.3605341],[7.1577221,45.36917],[7.1627232,45.3815043],[7.1857524,45.4032187],[7.1520995,45.423188],[7.114587,45.4330789],[7.0986409,45.4585003],[7.1039591,45.4678488],[7.0486656,45.4724201],[7.0542965,45.4946549],[6.9998427,45.5049956],[7.0051982,45.5173667],[6.9908762,45.532009],[6.9952577,45.5757034],[6.977992,45.5882144],[6.9845734,45.6201645],[7.0009683,45.6397708],[6.9743271,45.646665],[6.9701976,45.6542259],[6.9307323,45.6457282],[6.9164601,45.6510311],[6.9154352,45.6609529],[6.9021874,45.6638355],[6.9032333,45.6806164],[6.8931825,45.6755106],[6.8571385,45.6849918],[6.8086319,45.7250688],[6.8170193,45.7400517],[6.8055763,45.7477057],[6.8015322,45.7814326],[6.8144689,45.7947828],[6.816054,45.8106451],[6.8066925,45.8181146],[6.8182446,45.8359381],[6.8434727,45.8425807],[6.8651706,45.8327057],[6.8817492,45.849821],[6.9132016,45.8406008],[6.9416143,45.847641],[6.9518096,45.8616766],[6.9990711,45.8735189],[7.0037821,45.899499],[7.0407122,45.9230235],[7.0605681,45.9133899],[7.0642043,45.9000777],[7.1088057,45.8581851],[7.1535419,45.8792527],[7.1753224,45.862904],[7.1964891,45.8602597],[7.2001178,45.8755132],[7.2163815,45.8888008],[7.2568329,45.8881558],[7.2944347,45.9218198],[7.3239033,45.9102102],[7.3443026,45.9152399],[7.3863334,45.8971457],[7.4017525,45.9115127],[7.4271375,45.9154519],[7.4443718,45.9316011],[7.4747268,45.9358354],[7.4713803,45.9471943],[7.4991855,45.9624181],[7.5427174,45.9569626],[7.5414777,45.9761656],[7.5501336,45.9865558],[7.5786072,45.9860118],[7.5886314,45.9705044],[7.6642737,45.9756579],[7.6810151,45.9569986],[7.7098786,45.9480948],[7.7073209,45.9348937],[7.7212341,45.9236306],[7.7350929,45.9239722],[7.7477509,45.9410076],[7.7692674,45.9371169],[7.7995172,45.9171258],[7.82039,45.9269589],[7.8721317,45.9197809],[7.8770518,45.9271951],[7.8684081,45.9367135],[7.881811,45.9640084],[7.877425,45.9738599],[7.893849,45.9786349],[7.9086793,45.9969366],[7.9890881,45.9959316],[8.0010841,46.0122112],[8.0124128,46.01197],[8.0175008,46.0247044],[8.0118916,46.0312099],[8.0354146,46.0440449],[8.0216618,46.0693659],[8.0347631,46.1008364],[8.1082331,46.1116286],[8.1154154,46.1303459],[8.1443893,46.1368231],[8.1553445,46.1476309],[8.1498785,46.1625029],[8.1655097,46.1822274],[8.1532947,46.1911033],[8.1388777,46.2261481],[8.1153277,46.2360032],[8.1101547,46.2495047],[8.0826139,46.256538],[8.0859279,46.2666177],[8.1373754,46.3017052],[8.1788972,46.2973896],[8.2120118,46.3092769],[8.2239954,46.3344482],[8.2628834,46.3459664],[8.2637724,46.3640231],[8.2842822,46.3636306],[8.3128995,46.3770662],[8.3157324,46.3989657],[8.2889339,46.4081097],[8.3037682,46.4233414],[8.3254408,46.4257141],[8.3669353,46.4519219],[8.4385286,46.4642954],[8.4659449,46.4443655],[8.4568698,46.4231794],[8.4711718,46.395923],[8.4608374,46.3866763],[8.4702346,46.3625515],[8.4615616,46.3532565],[8.4654241,46.333916],[8.4277394,46.2983007],[8.4558804,46.2637553],[8.4445265,46.2488774],[8.4641062,46.2445507],[8.4702399,46.2323225],[8.5324431,46.2182823],[8.5404751,46.1978128],[8.5636969,46.1839451],[8.5736435,46.1643105],[8.6031756,46.1553321],[8.5927264,46.1428609],[8.6097051,46.1328793],[8.6118358,46.1216589],[8.6475778,46.1234895],[8.657707,46.1126896],[8.7139915,46.0972317],[8.7423432,46.1223113],[8.7600184,46.1015686],[8.783034,46.0941725],[8.8060394,46.1012763],[8.8521097,46.0756365],[8.8545888,46.0615846],[8.8441845,46.0485053],[8.8284868,46.0465333],[8.8354657,46.0437923],[8.7930889,46.0081018],[8.7858834,45.9890766],[8.8313229,45.988016],[8.8682985,45.9606214],[8.8936571,45.958982],[8.8986014,45.9462586],[8.8933121,45.9311849],[8.9142865,45.9178005],[8.9337745,45.8703334],[8.9453015,45.8669788],[8.914226,45.8422289],[8.9121469,45.830445],[8.9562417,45.8433836],[8.9699837,45.8323538],[8.9974877,45.8349446],[8.9937488,45.8220236],[9.0173324,45.8179585],[9.0344617,45.8230171],[9.0357159,45.8410364],[9.0507744,45.8522125],[9.0547875,45.8735517],[9.0663865,45.87539],[9.0890001,45.9006535],[9.0769314,45.8992992],[9.0765758,45.9114166],[9.0678084,45.9106341],[9.0598997,45.920939],[9.0193572,45.9283683],[9.0139638,45.9605478],[8.9889923,45.9703426],[8.9952919,45.9804895],[9.0284607,45.9936259],[9.0095249,46.0372876],[9.0226712,46.0526938],[9.0783019,46.065317],[9.0896151,46.0870156],[9.072505,46.1181016],[9.1214985,46.1348062],[9.1344847,46.1533104],[9.1612215,46.170723],[9.1834124,46.1701951],[9.1946469,46.1792001],[9.2022006,46.2084086],[9.2188966,46.2144312],[9.2209646,46.2291036],[9.248424,46.2337684],[9.2504714,46.2665102],[9.2848827,46.297047],[9.2815698,46.3093563],[9.2993603,46.3275403],[9.2921163,46.3361995],[9.299867,46.3436022],[9.2962933,46.3555842],[9.2760719,46.3677678],[9.2843719,46.3850847],[9.275835,46.3948932],[9.2802527,46.4141623],[9.2481872,46.4332321],[9.247002,46.4467941],[9.2781847,46.4616998],[9.2742137,46.4836909],[9.2822473,46.4964682],[9.363695,46.5093089],[9.3733583,46.5039425],[9.3684878,46.4940939],[9.3763638,46.4846613],[9.4116585,46.4669247],[9.4341905,46.497908],[9.4635588,46.5088716],[9.4610359,46.4848442],[9.4490956,46.4843765],[9.4628725,46.4804962],[9.4655893,46.4695003],[9.454435,46.4207798],[9.4690055,46.3886322],[9.4610869,46.3759888],[9.4964149,46.3643227],[9.5184896,46.3270969],[9.5495751,46.3023376],[9.5601576,46.306164],[9.5781775,46.2954447],[9.634983,46.286119],[9.6769697,46.3031251],[9.6873858,46.293926],[9.7097531,46.2919088],[9.7260028,46.3135079],[9.717357,46.3235164],[9.7275236,46.332686],[9.72296,46.3407507],[9.7369347,46.3509178],[9.7768719,46.3348247],[9.8326651,46.3609728],[9.8682052,46.3623607],[9.9067981,46.3808784],[9.9251799,46.3659841],[9.9579571,46.3789399],[9.9645192,46.3637647],[9.9963818,46.351142],[9.9799448,46.3231282],[10.0000665,46.3131885],[10.00076,46.3015575],[9.9917375,46.2962565],[9.9959304,46.2849247],[10.055535,46.265835],[10.0606499,46.2482616],[10.0438085,46.229717],[10.0703692,46.2171662],[10.0946838,46.2285853],[10.1323238,46.2248767],[10.1765238,46.2582761],[10.1542821,46.2927843],[10.1166088,46.3140817],[10.1059596,46.3421767],[10.1084459,46.3523268],[10.1291198,46.3608824],[10.127659,46.377744],[10.1620242,46.3875142],[10.1667266,46.4075934],[10.1611339,46.4153874],[10.1476693,46.4142237],[10.1430098,46.4283238],[10.080174,46.4210851],[10.0771538,46.4281898],[10.0614963,46.4274336],[10.0562782,46.4408682],[10.0419084,46.4428648],[10.0544643,46.4646603],[10.0428271,46.4800312],[10.0490901,46.4995961],[10.0422688,46.5100453],[10.0539918,46.5226654],[10.043892,46.5404664],[10.0823344,46.5634925],[10.0786732,46.5751226],[10.1006758,46.5827219],[10.1023535,46.6107363],[10.1276236,46.6051029],[10.1927651,46.6259337],[10.2153195,46.6169394],[10.2393091,46.6353532],[10.2590847,46.6102159],[10.2418397,46.5915995],[10.2460723,46.575007],[10.2693359,46.5776933],[10.2874191,46.5703962],[10.2960711,46.5499735],[10.3254683,46.5517323],[10.33819,46.5427256],[10.3518676,46.5558788],[10.3970401,46.5439172],[10.4182383,46.5513113],[10.4528003,46.5306824],[10.4591116,46.5413184],[10.4714651,46.5426968],[10.4920634,46.6153862],[10.4460753,46.6412711],[10.4022876,46.6368115],[10.3818217,46.684306],[10.4160393,46.7090203],[10.4187707,46.7191356],[10.4008147,46.7338447],[10.4421604,46.7527296],[10.4417039,46.7717914],[10.422719,46.7882424],[10.4505856,46.8040457],[10.4696528,46.8549076],[10.4787475,46.8590808],[10.494062,46.8486881],[10.5210203,46.845423],[10.5553028,46.8485959],[10.5461881,46.8372714],[10.6673854,46.8754951],[10.6967701,46.8626264],[10.6941249,46.8521541],[10.7167274,46.8470704],[10.722115,46.8378932],[10.7552364,46.8329744],[10.7635261,46.8234685],[10.743951,46.8029914],[10.7261027,46.797859],[10.7303397,46.788344],[10.7574482,46.7851773],[10.7863343,46.7963107],[10.8141084,46.7751316],[10.8406642,46.7817996],[10.8826854,46.7628608],[10.9232552,46.7753452],[10.9931331,46.7670159],[11.0138578,46.7721304],[11.0222541,46.7654215],[11.0442056,46.8009068],[11.0392751,46.8050342],[11.0833307,46.8222859],[11.070326,46.8383743],[11.071914,46.8562133],[11.101504,46.8894049],[11.0953483,46.9103689],[11.1092843,46.9159927],[11.1121184,46.9292671],[11.1388158,46.927506],[11.1640245,46.9398465],[11.1644467,46.9658177],[11.1952993,46.9704547],[11.2070357,46.9624844],[11.3196559,46.9923371],[11.337007,46.9848758],[11.3586739,46.9905585],[11.3822608,46.9705833],[11.4056144,46.9648163],[11.4403118,46.9751795],[11.4526196,46.9923163],[11.4698665,46.9952271],[11.4787804,47.0109818],[11.5126325,47.0051409],[11.5385399,46.9840841],[11.6272105,47.0133005],[11.6646887,46.9917472],[11.7114655,46.9932355],[11.7276809,46.9723754],[11.7470344,46.9688735],[11.765595,46.9735298],[11.7817896,46.9924638],[11.8362055,46.993008],[11.9166932,47.0331774],[11.9471987,47.0334663],[11.9793833,47.0500446],[12.0212665,47.0472656],[12.0440859,47.0614393],[12.0766715,47.0588878],[12.0938339,47.0769556],[12.1189335,47.0732272],[12.1859695,47.0921485],[12.226962,47.0821156],[12.240755,47.0691709],[12.216569,47.0586865],[12.2047269,47.026883],[12.1643736,47.0188983],[12.1474215,47.0249027],[12.1213505,47.0070069],[12.1306545,46.993233],[12.1275175,46.9855167],[12.1382048,46.9819881],[12.1319284,46.9623229],[12.1582249,46.9505335],[12.1686892,46.9373018],[12.1438199,46.9137844],[12.1903574,46.9061184],[12.2154215,46.8740059],[12.2418151,46.8908521],[12.2737093,46.8843939],[12.2758895,46.8726803],[12.2918557,46.865197],[12.2956384,46.8437635],[12.3067744,46.8412463],[12.2829344,46.8149423],[12.2922643,46.8026388],[12.2802601,46.7919228],[12.2837804,46.7830815],[12.3574389,46.774972],[12.3790996,46.7204504],[12.442493,46.6884957],[12.4737623,46.6867737],[12.4812791,46.6770135],[12.5160131,46.6786072],[12.5651527,46.6517739],[12.6192191,46.6618737],[12.6417216,46.651999],[12.6906419,46.656976],[12.7159269,46.649209],[12.7313958,46.6342959],[12.7564233,46.6471932],[12.7843726,46.6450057],[12.818988,46.6281833],[12.8312711,46.6313045],[12.8372865,46.6272574],[12.8336838,46.609891],[12.852714,46.6046143],[12.927878,46.610562],[12.9488921,46.6022459],[13.0214992,46.6022284],[13.0466232,46.5953033],[13.0837431,46.6020548],[13.1463337,46.5870975],[13.1686047,46.5889037],[13.1932291,46.572348],[13.2173526,46.5704978],[13.23979,46.5517007],[13.2694727,46.5612599],[13.3205735,46.5512327],[13.344723,46.570001],[13.3704904,46.5669938],[13.3722403,46.5792771],[13.4098573,46.5720601],[13.407502,46.5614953],[13.4265844,46.5576034],[13.4747245,46.5573486],[13.5042521,46.5663077],[13.5053889,46.5559271],[13.519886,46.5469057],[13.560953,46.5518894],[13.5709177,46.538851],[13.5973816,46.5456907],[13.6804148,46.5216896],[13.7140783,46.52299],[13.7166022,46.5067564],[13.7024979,46.4987457],[13.7031548,46.4847992],[13.7101518,46.4817921],[13.69365,46.4678835],[13.6988327,46.4568032],[13.6892561,46.4399844],[13.6546659,46.4394708],[13.6490386,46.4467062],[13.5977455,46.4393784],[13.5823664,46.4311457],[13.5779211,46.4087142],[13.5655372,46.3979705],[13.4697533,46.3610257],[13.4387472,46.3600052],[13.4482616,46.3311323],[13.4159519,46.3166274],[13.417665,46.3055188],[13.3754696,46.297697],[13.3924248,46.2824441],[13.405654,46.2438447],[13.4228642,46.2345293],[13.4113532,46.2273773],[13.416656,46.2227111],[13.411441,46.2118003],[13.4462556,46.2127338],[13.4460109,46.2257812],[13.4848767,46.2244589],[13.5025971,46.2156711],[13.5290686,46.2189044],[13.5294695,46.2121701],[13.5619242,46.2042205],[13.5669886,46.1857649],[13.5920821,46.1931001],[13.5898527,46.1882839],[13.6145806,46.1843263],[13.6336125,46.1917847],[13.6642372,46.1779728],[13.6439498,46.1372112],[13.5727685,46.0884605],[13.5445369,46.0830948],[13.5301666,46.0665479],[13.4965071,46.0585022],[13.5086524,46.0349482],[13.4969347,46.0164651],[13.4761639,46.0060818],[13.5016314,45.9804561],[13.5305921,45.9662532],[13.5685124,45.9687174],[13.5907621,45.9900856],[13.6429804,45.9828896],[13.6328562,45.9492726],[13.6379998,45.9351654],[13.6089238,45.8992123],[13.5930493,45.8914144],[13.5864952,45.8819167],[13.5932562,45.8746776],[13.5751656,45.8534994],[13.5745954,45.8423426],[13.5971685,45.8196166],[13.5958728,45.8081222],[13.6240573,45.7960469],[13.6693618,45.799702],[13.6745968,45.7906439],[13.6792913,45.7942363],[13.7355475,45.7595807],[13.7944116,45.7440861],[13.8339245,45.7071846],[13.8336427,45.6870943],[13.8712449,45.6561025],[13.9183049,45.6312045],[13.8690481,45.6093408],[13.8511207,45.5846906],[13.8101117,45.5808987],[13.7469231,45.597919],[13.7187169,45.5947174],[13.6287257,45.6315433],[13.3121034,45.5461662],[13.2125413,45.4583548],[13.1817096,45.4419347],[13.1290952,45.4321099],[13.0459667,45.4321099],[12.8603545,45.35167],[12.8238026,44.9099126],[12.7966386,44.8606406],[12.5662046,44.5749716],[12.5732846,44.4896376],[12.6273466,44.3294426],[12.6966366,44.2678906],[12.7833146,44.2217246],[12.8331956,44.1669156],[12.9141596,44.1493216],[13.0578146,44.0968056],[13.4408786,43.8485776],[13.4814198,43.8325563],[13.5601816,43.8290016],[13.6459316,43.8063556],[13.7186416,43.7697586],[13.8459466,43.6735196],[13.8894286,43.6154546],[13.9057576,43.5415156],[13.9617656,43.4273726],[14.0342806,43.3141466],[14.1051976,43.1671816],[14.1352596,43.0551576],[14.1863526,42.9453226],[14.2054916,42.8675206],[14.2534646,42.7837626],[14.3119116,42.7045996],[14.3909636,42.6296836],[14.4640656,42.5794686],[14.5568126,42.5358576],[14.6134336,42.4997466],[14.6756106,42.4313226],[14.7265096,42.3881536],[14.8658826,42.3451096],[15.0563956,42.2340896],[15.4283666,42.3320916],[15.5284229,42.3402429],[15.6089168,42.399445],[15.6927817,42.4209403],[15.7647764,42.4254785],[15.8237179,42.4187661],[15.9122678,42.3843968],[15.9666557,42.3458472],[15.9989993,42.3003616],[16.0177493,42.2531825],[16.0183421,42.2101624],[16.0070776,42.1657946],[16.0449856,42.1519286],[16.1359716,42.1437316],[16.2345506,42.1111856],[16.3700786,42.0373986],[16.4248476,41.9853886],[16.4542286,41.9229976],[16.4714396,41.8364826],[16.4693296,41.7810196],[16.5384616,41.4672686],[16.7167736,41.3921616],[16.8847126,41.3468036],[16.9590986,41.3346796],[17.0570296,41.2909286],[17.1410036,41.2720516],[17.2141876,41.2454446],[17.3213286,41.2004316],[17.4622146,41.1232206],[17.5381786,41.0617766],[17.6517746,40.9918866],[17.7949786,40.9514926],[17.8999066,40.9052826],[18.0484926,40.8694196],[18.1742426,40.8101636],[18.2300516,40.7692476],[18.4057356,40.6046756],[18.6188646,40.4325676],[18.6687706,40.3783836],[18.7760866,40.1775766],[18.7842116,40.0972336],[18.7719406,40.0450556],[18.6292856,39.7305926],[18.5697336,39.6618056],[18.5190866,39.6260406],[17.4138536,39.2622076],[17.4123066,39.2296816],[17.4620126,39.0729766],[17.4686416,39.0201946],[17.4503676,38.9486216],[17.3943196,38.8496386],[16.6637766,38.2043566],[16.2910526,37.8191186],[16.2312186,37.7696226],[16.1675196,37.7381686],[16.0917276,37.7210606],[15.9938776,37.7127126],[15.8968646,37.7222756],[15.7714386,37.7126446],[15.6717226,37.7267496],[15.5471416,37.7781386],[15.4614086,37.6384436],[15.4401256,37.5697586],[15.5519586,37.1193576],[15.5871066,37.0381246],[15.5887366,36.9720196],[15.5708336,36.9210286],[15.3780256,36.5918776],[15.3104296,36.5210976],[15.2555036,36.4876116],[15.1726746,36.4544846],[15.1092326,36.4412026],[15.0437056,36.4416006],[14.6375166,36.5209196],[14.3860586,36.6023036],[13.7547956,36.9219066],[13.5338376,37.0100866],[13.1897456,37.1889436],[12.9292196,37.3030166],[12.5982196,37.3650196],[12.5127486,37.4007186],[12.3106936,37.5390406],[12.2522936,37.5993286],[12.2227696,37.6553786],[11.9217636,37.7782466],[11.8558856,37.8186356],[11.8097886,37.8736606],[11.7811606,37.9454646],[11.7747366,37.9981566],[11.7857686,38.0503726],[11.8135406,38.0985486],[11.8442746,38.1300306],[11.9259186,38.1759256],[11.9901906,38.1910966],[12.2859466,38.2187356],[12.4114616,38.2472266],[12.5967156,38.3619086],[12.6912526,38.3889256],[12.8093446,38.3829866],[13.0762696,38.3928306],[13.2804366,38.4241696],[13.3477816,38.4248766],[13.4434856,38.4003526],[13.6361316,38.3040216],[14.0194996,38.2471956],[14.6833516,38.3606586],[14.5864156,38.3508576],[14.4977136,38.3610606],[14.4249076,38.3355556],[14.3545856,38.3283196],[14.2789986,38.3361426],[14.2167586,38.3562916],[14.1480186,38.3997306],[14.0965086,38.4690106],[14.0805796,38.5407016],[14.0944216,38.6132166],[14.1240446,38.6608526],[14.1619336,38.6972316],[14.2154606,38.7296436],[14.2779136,38.7500666],[14.3844626,38.7571466],[14.4536816,38.7807376],[14.5301526,38.7897336],[14.6112926,38.7851036],[14.6901566,38.7644176],[14.7741406,38.7846746],[14.8760806,38.7865146],[14.9295496,38.8191966],[14.9561366,38.8867536],[15.0183276,38.9493526],[15.1012276,38.9954046],[15.2197066,39.0211606],[15.3210126,39.0152906],[15.4140016,38.9783686],[15.4800946,38.9182316],[15.5006026,38.8817826],[15.5130726,38.8296666],[15.5078646,38.7759216],[15.4853776,38.7259116],[15.4307926,38.6534446],[15.3718246,38.6103726],[15.3598156,38.5716736],[15.3293756,38.5243546],[15.2723246,38.4771556],[15.5257626,38.5047606],[15.5770046,38.6803126],[15.5980236,38.7279546],[15.6323096,38.7758826],[15.6650936,38.8063286],[15.7600286,38.8576746],[15.8309626,39.0399676],[15.8004696,39.1126066],[15.7950496,39.2503236],[15.7623386,39.3431466],[15.7320266,39.3766636],[15.6706816,39.4228166],[15.6360796,39.4670206],[15.5912966,39.5706606],[15.5512676,39.6348416],[15.5383706,39.6951006],[15.3319846,39.7932276],[15.2754606,39.8032576],[15.1371236,39.8490546],[14.7498366,40.0836936],[14.0647746,40.3594836],[13.7834156,40.5033076],[13.0226386,40.6466076],[12.8557086,40.6876226],[12.6882106,40.7555796],[12.6273606,40.8028856],[12.5951196,40.8499056],[12.5789696,40.9227486],[12.3769937,41.3683829],[12.2766761,41.4743688],[12.2171317,41.5221517],[12.0943973,41.5667172],[12.0328316,41.5989836],[11.6462796,41.8832816],[11.6051936,41.9214356],[11.0164756,42.0458406],[10.8490176,42.1125456],[10.2782946,42.1116426],[9.9998452,42.1636929],[9.9198324,42.1901649],[9.8678341,42.2248728],[9.8265604,42.2668634],[9.8019369,42.369532],[9.8147388,42.4386074],[9.7931531,42.5376282],[9.7825268,42.6323774],[9.7332431,42.7036239],[9.7566263,42.7519469],[9.7644807,42.8085068],[9.7166615,42.8486185],[9.657867,42.9203543],[9.6417467,42.9550039],[9.5890955,43.17561],[9.5590006,43.1929537],[9.6172686,43.4682136],[9.6557866,43.5390926],[9.7283476,43.5981686],[9.9427936,43.7037736],[9.8671939,43.8188948],[9.7769646,43.8261796],[9.7096086,43.8469296],[9.2854425,44.0633976],[9.1104875,44.0973786],[9.0055355,44.1442346],[8.8754185,44.1862056],[8.7508155,44.1878116],[8.7106275,44.1601256],[8.6493925,44.0722006],[8.4623065,43.9086116],[8.3990105,43.8318446],[8.2498095,43.7328786],[8.0679195,43.6629426],[7.9258165,43.6244456],[7.7327785,43.5781696],[7.631016,43.5785906],[7.6103184,43.6559349],[7.5388503,43.7438246],[7.5299188,43.7884062],[7.518226,43.8030753],[7.5080858,43.8415023],[7.4967298,43.8493425],[7.4954976,43.8643503],[7.5118267,43.8855826],[7.5615612,43.8989884],[7.558106,43.917296],[7.5711118,43.9283259],[7.5693368,43.9475631],[7.598756,43.9574235],[7.6112618,43.9541271],[7.6526336,43.9738599],[7.6705224,43.9984055],[7.6625269,44.0288365],[7.7004925,44.0406978],[7.7142379,44.0615097],[7.7189825,44.0824476],[7.666426,44.130751],[7.6794005,44.1472256],[7.6718079,44.1590883],[7.6844841,44.1739613],[7.6360692,44.1771029],[7.6198643,44.1495148],[7.564199,44.1555109],[7.5615945,44.1485896],[7.5341655,44.1479453],[7.5213052,44.1376188],[7.5069856,44.1443989],[7.459553,44.126541],[7.429774,44.130226],[7.425866,44.1123171],[7.3930182,44.1252784],[7.3583899,44.1160364],[7.3446281,44.1452067],[7.28029,44.1409613],[7.2488589,44.1580569],[7.2417696,44.1729774],[7.2188526,44.1686499],[7.1935892,44.1870854],[7.1883302,44.2007619],[7.1776474,44.1972452],[7.1627268,44.2080143],[7.143103,44.2002315],[7.0768043,44.2322092],[7.0382013,44.2237541],[7.008514,44.2352417],[6.9966714,44.2519073],[6.9960782,44.2800848],[6.9717059,44.2836513],[6.9703713,44.29428],[6.9576009,44.2952983],[6.9601549,44.3114482],[6.9266902,44.3329667],[6.9218616,44.351657],[6.887345,44.3614236],[6.897117,44.3755563],[6.8929423,44.4209721],[6.948077,44.429701],[6.9118855,44.4512072],[6.9061681,44.4676598],[6.8766981,44.481269],[6.8615488,44.5004794],[6.8545067,44.5288607],[6.8698631,44.5371216],[6.8800101,44.5552997],[6.9038209,44.5554777],[6.9165645,44.5615339],[6.9127741,44.569112],[6.9328719,44.5730653],[6.937995,44.603741],[6.9503956,44.6102382],[6.9501986,44.6198938],[6.9679499,44.6195472],[6.9479283,44.6538596],[6.9629496,44.6782241],[6.9871062,44.6900821],[7.0237293,44.6912986],[7.0771286,44.6809196],[7.0657785,44.7136039],[7.0284446,44.7296844],[7.0215912,44.7713991],[6.9995704,44.7896954],[7.0250798,44.8231128],[7.0101202,44.8260139],[7.0012056,44.8421834],[6.9702329,44.8463157],[6.9314224,44.8644491],[6.9067999,44.8432822],[6.8635712,44.8504981],[6.8076445,44.8758288],[6.8017233,44.8910486],[6.7848729,44.8882727],[6.7709835,44.9037024],[6.751206,44.906146],[6.748482,44.922126],[6.7607666,44.9335526],[6.743808,44.936763],[6.765327,44.962125],[6.762411,44.972689],[6.737894,44.9893386],[6.7513094,44.9975574],[6.7482652,45.0161652],[6.673405,45.0197642],[6.6639408,45.0339891],[6.6698693,45.0442126],[6.6586765,45.052538],[6.6632386,45.0721211],[6.6456491,45.0753393],[6.6469378,45.0849077],[6.6272658,45.1068023],[6.6342862,45.1152153]],[[12.4074977071112,43.953777877865214],[12.407204,43.9539747],[12.4069141,43.9541277],[12.4061391,43.9543793],[12.4055303,43.954524],[12.4052623,43.9546217],[12.4052371,43.9547481],[12.405075,43.9548113],[12.404913,43.9549344],[12.4048139,43.9550386],[12.4046067,43.955414],[12.4046194,43.9556266],[12.4042688,43.9558727],[12.4040649,43.955562],[12.4040606,43.9555596],[12.4037455,43.9551521],[12.4034836,43.9547622],[12.4032103,43.9543102],[12.4029955,43.9537985],[12.4028245,43.9536183],[12.4025729,43.9534876],[12.402433,43.9532795],[12.4024681,43.953045],[12.4029263,43.9521153],[12.403515980235783,43.95136842332579],[12.403786440977667,43.950891155876185],[12.40392,43.9505396],[12.4040002,43.9502119],[12.4040863,43.9499293],[12.4042313,43.9494395],[12.4046702,43.9491591],[12.4048457,43.9489327],[12.4051163,43.9481538],[12.4051171,43.9477924],[12.405131,43.9477294],[12.4051753,43.9471785],[12.4051465,43.9463444],[12.4050008,43.9459237],[12.4049737,43.9458077],[12.4047032,43.9455653],[12.404736,43.9454215],[12.404799,43.9448788],[12.4048264,43.9446699],[12.405001,43.9442142],[12.4051457,43.9437561],[12.4051123,43.9433666],[12.4052391,43.9426403],[12.4052767,43.942306],[12.4054176,43.9421295],[12.4060245,43.9417271],[12.4064823,43.9412332],[12.4066988,43.941062],[12.4070918,43.9408329],[12.4076973,43.9406494],[12.4078438,43.9406077],[12.4081046,43.9404638],[12.4086263,43.9400358],[12.4096896,43.9395256],[12.41045310911159,43.93912684703241],[12.412013286737626,43.93637368592177],[12.4119606,43.9362844],[12.4119624,43.9361305],[12.4121164,43.9359438],[12.412357471674758,43.93576632137048],[12.4152881,43.9305948],[12.4152592,43.9305848],[12.415229,43.9305724],[12.41523809424466,43.93053578906154],[12.411505323774852,43.926130810334385],[12.4108721,43.9258607],[12.4102751,43.9251236],[12.4097777,43.9250201],[12.4094643,43.924627],[12.4095581,43.9244097],[12.4091413,43.9236161],[12.4089376,43.9233437],[12.408937740973478,43.923100849689405],[12.4075711,43.9214881],[12.4088073,43.9021828],[12.4096149,43.9019336],[12.4098977,43.9018173],[12.410189,43.9016753],[12.4104441,43.9014962],[12.4107094,43.9011676],[12.4111591,43.9007953],[12.4115129,43.9007241],[12.4120983,43.9006392],[12.4131943,43.9005349],[12.4133128,43.9005217],[12.4135869,43.9004668],[12.4139932,43.9004362],[12.4144159,43.9003647],[12.4146273,43.900305],[12.4150232,43.9002482],[12.4155789,43.9002439],[12.4156775,43.9002402],[12.4162601,43.9002786],[12.416554,43.9002965],[12.4167584,43.9003209],[12.4174316,43.9003728],[12.4189033,43.9005289],[12.4203834,43.9007056],[12.42107,43.9009357],[12.4218699,43.9011244],[12.422577,43.9012452],[12.4232055,43.9013282],[12.4236817,43.9014453],[12.4240226,43.901732],[12.4243839,43.9024497],[12.4244907,43.902662],[12.4249013,43.9030558],[12.4249717,43.9030947],[12.4255749,43.9032566],[12.4258557,43.9032805],[12.426577,43.9034899],[12.4267007,43.9035769],[12.4270115,43.9038124],[12.4273022,43.9039924],[12.4275476,43.9041532],[12.4277342,43.9042548],[12.4280608,43.9041518],[12.4281053,43.9040538],[12.427678,43.9032957],[12.428129,43.90329],[12.4288576,43.9034009],[12.4288361,43.9029729],[12.4289416,43.9028402],[12.4290895,43.9027577],[12.4292262,43.9026742],[12.4293889,43.9025268],[12.4295566,43.9022734],[12.4298267,43.9019849],[12.4303662,43.9018807],[12.4305308,43.9018472],[12.430744,43.9018104],[12.430938,43.9018659],[12.4311446,43.9018794],[12.4315288,43.9017936],[12.432611,43.9013637],[12.4326811,43.9015053],[12.432882,43.9015708],[12.4332117,43.9016181],[12.4333038,43.901674],[12.4334886,43.9017567],[12.4337406,43.9018416],[12.4338407,43.9019535],[12.4341884,43.9023414],[12.4344058,43.9026892],[12.4347224,43.903295],[12.4347555,43.9032991],[12.4359089,43.9035297],[12.4362228,43.9031421],[12.4363065,43.9030375],[12.4364324,43.9032137],[12.4366636,43.9033699],[12.4371055,43.9034487],[12.437286,43.9032667],[12.4375524,43.9031362],[12.437775,43.9033385],[12.4382323,43.9034619],[12.4377369,43.9041904],[12.4384917,43.904702],[12.439801,43.9053326],[12.440428256440924,43.90594480384016],[12.4420244,43.9061347],[12.444053008632235,43.904226990534816],[12.4441333,43.9040523],[12.44426945099739,43.90402344750433],[12.448716213276693,43.899841699307636],[12.4484877,43.8996107],[12.4479516,43.899693],[12.4479174,43.8993073],[12.4490265,43.8987531],[12.449448,43.8985388],[12.4492073,43.8978213],[12.4492568,43.8975993],[12.4496945,43.8969874],[12.4500352,43.896743],[12.4503472,43.896432],[12.450648,43.8960897],[12.4511191,43.8956794],[12.451747,43.8953948],[12.4520791,43.8952722],[12.4527057,43.8951272],[12.4530616,43.8948239],[12.4534702,43.8945684],[12.4537394,43.8944342],[12.4541813,43.8942183],[12.4545624,43.8940267],[12.4550049,43.8939278],[12.456230376719862,43.89402392983832],[12.4564195,43.8939958],[12.4567041,43.8938964],[12.4568165,43.8937694],[12.4570643,43.8936958],[12.457382,43.8936412],[12.4574857,43.893632],[12.4575962,43.8936325],[12.4576534,43.8936629],[12.4576302,43.8938575],[12.4577479,43.8938801],[12.4579776,43.8939196],[12.4580909,43.8939212],[12.458427488669429,43.894196277475],[12.458641081445366,43.894213032292676],[12.4587649,43.8940997],[12.4588782,43.8941419],[12.458976032988014,43.89423930683312],[12.460850669823849,43.894386358615506],[12.4610893,43.8942971],[12.4615982,43.8940566],[12.4621282,43.893856],[12.462394,43.8937714],[12.4626256,43.8941155],[12.4628006,43.8944552],[12.462848405957002,43.894543066652766],[12.463502957196251,43.8945944114917],[12.463816,43.8943772],[12.464915091160083,43.89470518324887],[12.4874043,43.8964693],[12.4876113,43.897136],[12.4878731,43.8977807],[12.4880311,43.8984601],[12.4881244,43.8988848],[12.4883078,43.8995725],[12.4884615,43.9000179],[12.4887119,43.900627],[12.4890319,43.9012564],[12.4892917,43.9019192],[12.4894967,43.9023901],[12.4895996,43.9025535],[12.4899251,43.9028496],[12.4901861,43.9031612],[12.4905834,43.9034597],[12.4908485,43.9036812],[12.4911499,43.9039375],[12.4916222,43.9045083],[12.4918501,43.9047849],[12.492073,43.9050842],[12.4921867,43.9053778],[12.4922476,43.905673],[12.4922879,43.9058834],[12.4924539,43.9061124],[12.4926301,43.906305],[12.492771,43.9065303],[12.4928222,43.9067673],[12.4928864,43.9070669],[12.4929085,43.9073904],[12.4929754,43.9076704],[12.4934631,43.9078775],[12.4938764,43.9080765],[12.4943635,43.9083677],[12.494824,43.9086281],[12.4951406,43.9088255],[12.4954397,43.9090954],[12.4955687,43.9093301],[12.4955045,43.9096156],[12.4952082,43.9098723],[12.4948695,43.9099907],[12.4944892,43.9100879],[12.4937319,43.910075],[12.4933184,43.9101372],[12.4933592,43.9106221],[12.4934557,43.9109928],[12.4934899,43.9113654],[12.4934503,43.9119653],[12.4932961,43.9124466],[12.4932398,43.912995],[12.4934924,43.913427],[12.4934401,43.9137572],[12.4933949,43.9142087],[12.4933937,43.9145598],[12.4934381,43.9147688],[12.4934668,43.9149042],[12.4933905,43.9149622],[12.4933812,43.9151168],[12.4934481,43.9153729],[12.4934199,43.915517],[12.4929932,43.915509],[12.4928817,43.9156075],[12.4927763,43.9158111],[12.4926442,43.9159545],[12.4924858,43.9161226],[12.4924693,43.9162726],[12.492450089710879,43.91652009022116],[12.4929354,43.9184486],[12.493370571243627,43.91885445514574],[12.4933746,43.9188571],[12.493375574589972,43.91885912143261],[12.495333480724852,43.920685129679626],[12.4955659,43.9208257],[12.4959782,43.9209976],[12.4963543,43.921259],[12.4964785,43.921514],[12.4964671,43.9217329],[12.496469503254628,43.921744621997064],[12.497638230483364,43.922834615802266],[12.4978516,43.9228509],[12.4986512,43.9228277],[12.4989127,43.9228292],[12.4990948,43.9229563],[12.4994955,43.9230969],[12.5009701,43.9231009],[12.5013864,43.9231101],[12.5018771,43.9233251],[12.5021433,43.9233547],[12.5026027,43.9233753],[12.5029543,43.9234923],[12.5032693,43.9236394],[12.5036954,43.9242034],[12.5039197,43.9244983],[12.5040106,43.9248619],[12.5040548,43.9251375],[12.5039773,43.9254781],[12.5039044,43.9257516],[12.5038903,43.9261135],[12.503861,43.9266472],[12.5039842,43.9270909],[12.5040987,43.9274534],[12.5046302,43.9279833],[12.5048,43.9282457],[12.5048249,43.9286164],[12.5048393,43.9289732],[12.5048556,43.9293471],[12.504949977774707,43.92965379401323],[12.505788687148355,43.93043600221302],[12.5061238,43.9303927],[12.5063061,43.9304836],[12.5063981,43.9306578],[12.5063669,43.9308317],[12.506466706452356,43.93106834552034],[12.506971858265432,43.9315394668679],[12.5070432,43.9316003],[12.507078645241906,43.93163905994657],[12.5169591,43.9408539],[12.515862005260836,43.94263842967832],[12.5158451,43.942848],[12.5158093,43.9434767],[12.5158009,43.9435618],[12.5159226,43.9435769],[12.5158759,43.9441846],[12.5156225,43.9445415],[12.5153941,43.9449663],[12.5154701,43.9453781],[12.5152562,43.9456575],[12.5151735,43.9457287],[12.5149012,43.9464495],[12.5144643,43.9475735],[12.5141489,43.9484819],[12.5140782,43.9487298],[12.513923,43.9490579],[12.5136114,43.9497471],[12.5134304,43.9500844],[12.5132045,43.9503137],[12.5130559,43.9504025],[12.5128462,43.9510374],[12.5124127,43.9515327],[12.5122567,43.9516966],[12.5107935,43.9534386],[12.5105491,43.953725],[12.5101306,43.9541025],[12.5096912,43.9545122],[12.5088561,43.9552559],[12.5086121,43.9555262],[12.5083105,43.9558545],[12.5078196,43.956406],[12.5072908,43.9569843],[12.5063687,43.9580802],[12.5065728,43.9584493],[12.5069276,43.9589936],[12.5073083,43.9596327],[12.507704,43.9602459],[12.5079542,43.9606399],[12.5084446,43.9614682],[12.5090131,43.9623985],[12.5091035,43.9625599],[12.5092669,43.9627065],[12.5091987,43.9628504],[12.5091259,43.9630367],[12.5090556,43.9631957],[12.5087252,43.9631694],[12.5084641,43.9634334],[12.50796513056378,43.963844910839185],[12.51013952390005,43.971696645276374],[12.5104775,43.9719146],[12.510732,43.9720777],[12.5107884,43.9721645],[12.5110013,43.9721173],[12.5112905,43.9721082],[12.5116077,43.9721317],[12.511813,43.9721439],[12.5118333,43.9722145],[12.5119666,43.9723585],[12.5122071,43.9726405],[12.5123185,43.9728222],[12.5123477,43.9730057],[12.5123333,43.9732034],[12.5122925,43.9734166],[12.5124036,43.9736352],[12.5122382,43.9738573],[12.5122259,43.9740536],[12.5119629,43.9744827],[12.5118222,43.9746213],[12.5116614,43.9749263],[12.5114667,43.9751677],[12.5114279,43.9754331],[12.511325982271835,43.97598094651142],[12.513689078627015,43.98451408755858],[12.5137395,43.9845243],[12.513966,43.9845213],[12.5144215,43.9845293],[12.5145512,43.9845853],[12.5148105,43.9846253],[12.5154104,43.9846386],[12.5156342,43.9846059],[12.5159305,43.9845966],[12.5156903,43.9854712],[12.5155251,43.9862494],[12.5155141,43.9863014],[12.5153554,43.9867769],[12.5150944,43.9878675],[12.5149437,43.9884118],[12.5149507,43.9884793],[12.5149907,43.9888642],[12.5150723,43.9895089],[12.5147668,43.9900843],[12.5144765,43.9907204],[12.5144132,43.9908204],[12.5142816,43.9908752],[12.5134213,43.9913202],[12.5132873,43.991185],[12.5129521,43.9911487],[12.5127216,43.9911291],[12.5117344,43.9910531],[12.5107416,43.9909717],[12.5098677,43.9909031],[12.5096899,43.9909815],[12.5094134,43.9911131],[12.5093365,43.9913326],[12.5094193,43.9916349],[12.5097408,43.9919091],[12.5095662,43.992042],[12.5089747,43.9919233],[12.5088315,43.9918376],[12.5085345,43.9916849],[12.5082237,43.9915496],[12.5081397,43.9914613],[12.5080711,43.9913831],[12.5080347,43.9913375],[12.5080207,43.9913128],[12.5079849,43.9912577],[12.5079095,43.991186],[12.5078572,43.9911324],[12.5078308,43.9910901],[12.5075303,43.9910781],[12.5071293,43.9912822],[12.5065315,43.991268],[12.5060284,43.9907801],[12.5058404,43.9906374],[12.5056054,43.9906631],[12.5055682,43.9906638],[12.5051036,43.9907806],[12.5048317,43.990863],[12.5046128,43.9910148],[12.5045411,43.9911271],[12.5039372,43.9908534],[12.5035865,43.9906839],[12.5037983,43.9905951],[12.5045694,43.9903015],[12.5041949,43.9901346],[12.5041874,43.9897778],[12.5041536,43.9893638],[12.5040069,43.9890359],[12.5039854,43.9889835],[12.5032269,43.9889538],[12.5030942,43.988884],[12.5031258,43.9887018],[12.5032447,43.9886153],[12.503519,43.9882949],[12.5035375,43.9881897],[12.5032111,43.9879429],[12.5026066,43.9875041],[12.5024513,43.9870711],[12.5021776,43.986868],[12.5020711,43.9867853],[12.5015194,43.9868346],[12.501098,43.9867901],[12.5008659,43.9867633],[12.5002972,43.9867022],[12.4998209,43.9865098],[12.499465,43.9863545],[12.4992683,43.9859953],[12.4991323,43.9857509],[12.4989953,43.9859711],[12.4989102,43.9861079],[12.4983202,43.9863395],[12.4981291,43.9861626],[12.4980466,43.9860731],[12.4976209,43.986177],[12.4974516,43.9862103],[12.497177,43.9862772],[12.4970019,43.9863177],[12.4968111,43.9861416],[12.4966522,43.9862126],[12.4965028,43.9862432],[12.4962655,43.9863017],[12.4961102,43.9862857],[12.4955083,43.9857079],[12.4949959,43.9850728],[12.4948326,43.9850112],[12.4946943,43.9848888],[12.4947344,43.9846864],[12.4947969,43.9845952],[12.4947281,43.9845592],[12.4946105,43.9845774],[12.4945261,43.9846178],[12.494434,43.9846249],[12.4942966,43.9844879],[12.4942314,43.9843428],[12.4941965,43.9842924],[12.4940789,43.9841816],[12.4940278,43.9841281],[12.4938721,43.9840333],[12.493704,43.9839686],[12.49366478571391,43.98392380896442],[12.491085705108727,43.98325094242907],[12.4910551,43.9832626],[12.4907711,43.9832897],[12.4904713,43.9833183],[12.4901791,43.9832812],[12.4899503,43.9831904],[12.4898041,43.9831132],[12.4895657,43.9830046],[12.4893948,43.982922],[12.4893065,43.9828506],[12.4891393,43.9827664],[12.489011749458111,43.98270985994011],[12.482179764235175,43.98092743630541],[12.4820556,43.9809343],[12.4818715,43.980952],[12.4816808,43.9810802],[12.4814607,43.9810432],[12.4812762,43.9810096],[12.4810764,43.9809692],[12.4809829,43.9809482],[12.480602,43.9808841],[12.4805342,43.9808683],[12.4804692,43.980946],[12.4803905,43.9809191],[12.4801524,43.9808235],[12.4800559,43.9807762],[12.4797823,43.9806729],[12.4795651,43.980584],[12.4794495,43.9805663],[12.4793108,43.9806161],[12.4792013,43.9807155],[12.4791625,43.9807627],[12.4790444,43.9806937],[12.4788772,43.9806265],[12.4787168,43.9805558],[12.478495,43.9804669],[12.4782532,43.9803774],[12.4781198,43.9804372],[12.4780254,43.9804183],[12.4779744,43.9804289],[12.4778347,43.9804569],[12.4777198,43.980406],[12.477622,43.9803178],[12.4775569,43.9802636],[12.4775425,43.9802322],[12.4774501,43.9802021],[12.4773856,43.98016],[12.4772061,43.9801231],[12.4771144,43.9800985],[12.4769293,43.9800238],[12.4767949,43.979994],[12.4767454,43.9799541],[12.4766763,43.9799398],[12.4765136,43.9798561],[12.4764288,43.9798069],[12.4763225,43.9798026],[12.4762251,43.9798099],[12.4761103,43.979797],[12.4760764,43.9797851],[12.4758087,43.9798413],[12.4757624,43.9798189],[12.4756084,43.9798201],[12.4755362,43.97977],[12.4754469,43.9797364],[12.475398,43.9797001],[12.4753138,43.9796266],[12.4752124,43.9795241],[12.4751667,43.9795395],[12.4750486,43.9795162],[12.4746851,43.9794709],[12.4745825,43.9794345],[12.4744928,43.9793835],[12.4743563,43.9793006],[12.4741667,43.9792375],[12.4739272,43.9791877],[12.4738423,43.9790997],[12.4737864,43.9790214],[12.4736723,43.9790176],[12.4735329,43.978984],[12.4734138,43.9789432],[12.4732587,43.9788577],[12.473154,43.9788158],[12.4730214,43.978746],[12.4729237,43.978662],[12.4727497,43.9786123],[12.4726422,43.9785891],[12.4725351,43.9785823],[12.4723987,43.9785834],[12.4723118,43.9785818],[12.4722146,43.9785592],[12.472083,43.9785384],[12.4719087,43.9785008],[12.4717857,43.9784852],[12.4717016,43.9784291],[12.4716305,43.9784124],[12.4716009,43.9783779],[12.4715062,43.978311],[12.4713957,43.9782541],[12.4713136,43.97824],[12.4712329,43.978184],[12.4710751,43.9781268],[12.4710174,43.9780767],[12.4709481,43.9780645],[12.4709228,43.9780011],[12.470832258595303,43.97796694069726],[12.47070604499007,43.977934012330806],[12.4706735,43.9779309],[12.470663380419701,43.97792288140237],[12.4697903,43.9776951],[12.4696616,43.9776342],[12.469509,43.97757],[12.4694359,43.9775149],[12.4693309,43.9774873],[12.4692465,43.9774213],[12.4690226,43.977219],[12.469021851649186,43.977208621927396],[12.468790002695563,43.97706184637381],[12.4687856,43.9770609],[12.46859,43.9770097],[12.4684437,43.9769146],[12.4683901,43.9768402],[12.468379023302473,43.976801669534574],[12.466900950467188,43.97586595274461],[12.4668769,43.975855],[12.4664136,43.9756714],[12.465597,43.9754009],[12.4646563,43.975092],[12.464053,43.974849],[12.46363,43.9746863],[12.4627989,43.9742767],[12.4615549,43.9736242],[12.4601216,43.9728966],[12.4595482,43.9724463],[12.4580968,43.9724128],[12.4573564,43.9715216],[12.4569393,43.9712924],[12.4563348,43.9709998],[12.4556511,43.9706515],[12.4536979,43.9696762],[12.453261,43.9692727],[12.4530115,43.9690842],[12.4525763,43.9687314],[12.4518859,43.9691578],[12.4508731,43.9682939],[12.4500671,43.9674747],[12.4494803,43.9669734],[12.4488121,43.9660154],[12.4487356,43.9658822],[12.4481916,43.9660531],[12.4474391,43.96627],[12.4472827,43.9660559],[12.4464731,43.965762],[12.4464517,43.9656486],[12.4458178,43.9650015],[12.4451261,43.9642978],[12.444433,43.9635837],[12.4444949,43.9633697],[12.4430632,43.9622292],[12.4424501,43.9615686],[12.4421294,43.9614109],[12.4415251,43.961386],[12.4397138,43.9605618],[12.4400977,43.9602655],[12.4400194,43.960089],[12.4400117,43.9599909],[12.4397449,43.9598139],[12.4391095,43.9593988],[12.4386545,43.9590414],[12.4382931,43.9587236],[12.4377856,43.9582643],[12.4375792,43.9579863],[12.4369833,43.9571881],[12.4365217,43.9566339],[12.4357657,43.9566888],[12.4355916,43.9566945],[12.4355438,43.9566961],[12.4352868,43.9567044],[12.4340497,43.9568011],[12.4318867,43.9571334],[12.4318657,43.9572316],[12.4313782,43.9572301],[12.4311563,43.9570399],[12.431017,43.9569914],[12.4308134,43.9570053],[12.4300693,43.9570664],[12.4299205,43.957061],[12.4282589,43.9572041],[12.4271281,43.9573169],[12.4261985,43.9573996],[12.4250685,43.9575591],[12.4247128,43.9576038],[12.4246795,43.9574334],[12.4243179,43.9574846],[12.4239047,43.9575695],[12.4234773,43.957528],[12.423361,43.9574925],[12.4220758,43.9576247],[12.4217791,43.9576818],[12.4210884,43.9577626],[12.4206153,43.9577349],[12.4204306,43.9577376],[12.4201965,43.9577374],[12.4200912,43.9577373],[12.4196306,43.9578868],[12.4196565,43.9573715],[12.4196713,43.9571395],[12.4192513,43.9566687],[12.4189504,43.9561998],[12.4182399,43.955595],[12.4178948,43.9553512],[12.417291835842025,43.95474164079588],[12.4074977071112,43.953777877865214]],[[12.4545155,41.9002048],[12.4583653,41.9022574],[12.4554001,41.9073829],[12.4457878,41.9019669],[12.4545155,41.9002048]]],[[[7.9094195,40.9766976],[7.9517725,41.0565576],[7.9724245,41.1171096],[8.0707105,41.2358406],[8.1557165,41.2859736],[8.2443085,41.3159946],[8.3518115,41.3219946],[8.4359005,41.3031926],[8.4952925,41.2734526],[8.7891398,41.2323855],[8.8126765,41.2576405],[9.1348611,41.3181386],[9.2698328,41.2918053],[9.3165005,41.3361394],[9.4500281,41.4064732],[9.630964,41.4336638],[9.6581546,41.3928856],[9.7110666,41.3607006],[9.7441786,41.3296936],[9.7685986,41.2944086],[9.7839966,41.2537276],[9.8447286,41.1969856],[9.9011876,41.0981766],[9.9627206,41.0384066],[10.0275896,40.9504806],[10.0421536,40.9122466],[10.0457866,40.8593206],[10.0365586,40.8201456],[10.0151586,40.7799086],[10.0948356,40.5382366],[10.0867006,40.4708586],[10.0582256,40.4040496],[9.9775206,39.8987266],[9.9586626,39.8231896],[9.8941296,39.2800506],[9.8669616,39.1139366],[9.8514196,39.0653326],[9.8206886,39.0181246],[9.7104036,38.9288216],[9.6536986,38.8998476],[9.5863596,38.8819286],[9.1667965,38.8159896],[9.0178485,38.7161906],[8.9227015,38.6791866],[8.6633215,38.6611306],[8.3927405,38.6560576],[8.2951885,38.6760776],[8.2147305,38.7237746],[8.1805645,38.7618646],[7.9760805,39.0553906],[7.9506355,39.1183706],[7.9499075,39.1712786],[7.9668095,39.2225306],[8.1143885,39.4296876],[8.1187975,39.4883416],[8.1652115,39.6859828],[8.0922247,39.7397648],[8.0466484,39.7870844],[8.0206717,39.8400575],[8.0220919,39.9932606],[8.0994754,40.2887173],[7.9048515,40.4912726],[7.8748495,40.5730446],[7.8666105,40.7286496],[7.9094195,40.9766976]]],[[[8.9670775,45.9841493],[8.9774204,45.982877],[8.9756323,45.9616322],[8.9585437,45.9648164],[8.9670775,45.9841493]]],[[[11.6781438,36.8630495],[11.6937624,36.9011441],[11.7140536,36.9329338],[11.7771896,36.9905095],[11.8769065,37.0299059],[11.9748195,37.0389309],[12.0294045,37.0306578],[12.131263,36.9994509],[12.2210264,36.9430065],[12.2644661,36.8994],[12.2914045,36.8525532],[12.3065721,36.7558088],[12.2987933,36.7114773],[12.2721015,36.657546],[12.2324591,36.6121049],[12.1924021,36.5815785],[12.1430805,36.5561053],[12.0789835,36.5367404],[11.9813248,36.5333445],[11.8757388,36.5568949],[11.7871348,36.6103486],[11.6958128,36.7219927],[11.6800318,36.759608],[11.6730798,36.8045571],[11.6781438,36.8630495]]],[[[12.0866482,35.6170918],[12.1022461,35.6472886],[12.1412261,35.6892391],[12.2019316,35.7244753],[12.2787448,35.7474877],[12.3685097,35.7509847],[12.4587466,35.7218126],[12.5475515,35.7261758],[12.6834958,35.7128874],[12.6281436,35.7680996],[12.6121526,35.7976976],[12.5982296,35.8493076],[12.6011176,35.9058586],[12.6207736,35.9562316],[12.6558296,36.0007456],[12.6908376,36.0284326],[12.7547126,36.0596676],[12.8658396,36.0775076],[12.9301006,36.0715756],[12.9777676,36.0578626],[13.0609286,36.0074056],[13.0899636,35.9754796],[13.1157056,35.9269336],[13.1281916,35.8612426],[13.1205086,35.8059396],[13.0957076,35.7552146],[13.0561876,35.7118706],[13.0053046,35.6790286],[12.9458706,35.6580476],[12.8818286,35.6502976],[12.8099806,35.6566462],[12.8437786,35.6206606],[12.8698956,35.5713446],[12.8793986,35.5190866],[12.8761916,35.4564106],[12.8564656,35.4061146],[12.8215466,35.3617066],[12.7738276,35.3261986],[12.7308986,35.3065296],[12.6529606,35.2903776],[12.5623016,35.2920696],[12.4460533,35.3248005],[12.3793693,35.3554718],[12.2938384,35.3505606],[12.1780938,35.3810009],[12.1425082,35.4047879],[12.0951309,35.4620045],[12.0729362,35.5217855],[12.0719603,35.5581507],[12.0866482,35.6170918]]],[[[12.8975109,38.7238851],[12.9187275,38.7825911],[12.9749783,38.8504552],[13.063518,38.8999752],[13.1748613,38.922326],[13.2244209,38.9211172],[13.2968502,38.9018487],[13.3794387,38.8568479],[13.4333604,38.7976936],[13.4512266,38.7597526],[13.4588836,38.7130476],[13.4545036,38.6734016],[13.4391586,38.6328846],[13.3782806,38.5617146],[13.2903596,38.5100256],[13.1915766,38.4882936],[13.0925646,38.4954226],[12.9984056,38.5314178],[12.9639443,38.5557939],[12.9216953,38.6064409],[12.8958937,38.6899106],[12.8975109,38.7238851]]]]}},{"type":"Feature","properties":{"name":"San Marino","boundary":"administrative","admin_level":"2","type":"boundary","osm_id":54624,"wikidata":"Q238"},"geometry":{"type":"Polygon","coordinates":[[[12.402433,43.9532795],[12.4024681,43.953045],[12.4029263,43.9521153],[12.4036878,43.9511508],[12.40392,43.9505396],[12.4040002,43.9502119],[12.4040863,43.9499293],[12.4042313,43.9494395],[12.4046702,43.9491591],[12.4048457,43.9489327],[12.4051163,43.9481538],[12.4051171,43.9477924],[12.405131,43.9477294],[12.4051753,43.9471785],[12.4051465,43.9463444],[12.4050008,43.9459237],[12.4049737,43.9458077],[12.4047032,43.9455653],[12.404736,43.9454215],[12.404799,43.9448788],[12.4048264,43.9446699],[12.405001,43.9442142],[12.4051457,43.9437561],[12.4051123,43.9433666],[12.4052391,43.9426403],[12.4052767,43.942306],[12.4054176,43.9421295],[12.4060245,43.9417271],[12.4064823,43.9412332],[12.4066988,43.941062],[12.4070918,43.9408329],[12.4076973,43.9406494],[12.4078438,43.9406077],[12.4081046,43.9404638],[12.4086263,43.9400358],[12.4096896,43.9395256],[12.4107923,43.9389497],[12.4109593,43.9388186],[12.4115916,43.9382979],[12.4121743,43.9377492],[12.4123535,43.9375581],[12.4124443,43.9371937],[12.4124021,43.93695],[12.4122095,43.9367062],[12.4119606,43.9362844],[12.4119624,43.9361305],[12.4121164,43.9359438],[12.4125804,43.9356022],[12.4128308,43.9353618],[12.4130221,43.9349766],[12.4130901,43.9348756],[12.413487,43.9345233],[12.4137437,43.9340085],[12.4138005,43.933928],[12.4140034,43.9332461],[12.4145689,43.9325136],[12.4149145,43.932243],[12.4149654,43.9320486],[12.4151047,43.93141],[12.4152881,43.9305948],[12.4152592,43.9305848],[12.415229,43.9305724],[12.4153495,43.9300873],[12.4151903,43.9298008],[12.4151356,43.9294517],[12.4150702,43.9289945],[12.4147246,43.9283984],[12.4142441,43.9280892],[12.4137068,43.9277205],[12.4135326,43.9275174],[12.4134721,43.9272821],[12.4127005,43.9268795],[12.412218,43.9267663],[12.4115979,43.9261703],[12.4108721,43.9258607],[12.4102751,43.9251236],[12.4097777,43.9250201],[12.4094643,43.924627],[12.4095581,43.9244097],[12.4091413,43.9236161],[12.4089376,43.9233437],[12.4089379,43.9228269],[12.4089382,43.9223368],[12.408146,43.9220852],[12.4083582,43.9218115],[12.4080079,43.92166],[12.4075711,43.9214881],[12.4080673,43.9207809],[12.4078688,43.9205836],[12.4081139,43.9198519],[12.409135,43.9190339],[12.4094378,43.9175926],[12.409852,43.9164497],[12.4111357,43.9129962],[12.4117463,43.9117024],[12.4118292,43.9111303],[12.4125026,43.9094041],[12.4120902,43.9082371],[12.4113459,43.9071968],[12.410655,43.906141],[12.4101074,43.9052359],[12.409413,43.9041028],[12.4088474,43.9031971],[12.4088073,43.9021828],[12.4096149,43.9019336],[12.4098977,43.9018173],[12.410189,43.9016753],[12.4104441,43.9014962],[12.4107094,43.9011676],[12.4111591,43.9007953],[12.4115129,43.9007241],[12.4120983,43.9006392],[12.4131943,43.9005349],[12.4133128,43.9005217],[12.4135869,43.9004668],[12.4139932,43.9004362],[12.4144159,43.9003647],[12.4146273,43.900305],[12.4150232,43.9002482],[12.4155789,43.9002439],[12.4156775,43.9002402],[12.4162601,43.9002786],[12.416554,43.9002965],[12.4167584,43.9003209],[12.4174316,43.9003728],[12.4189033,43.9005289],[12.4203834,43.9007056],[12.42107,43.9009357],[12.4218699,43.9011244],[12.422577,43.9012452],[12.4232055,43.9013282],[12.4236817,43.9014453],[12.4240226,43.901732],[12.4243839,43.9024497],[12.4244907,43.902662],[12.4249013,43.9030558],[12.4249717,43.9030947],[12.4255749,43.9032566],[12.4258557,43.9032805],[12.426577,43.9034899],[12.4267007,43.9035769],[12.4270115,43.9038124],[12.4273022,43.9039924],[12.4275476,43.9041532],[12.4277342,43.9042548],[12.4280608,43.9041518],[12.4281053,43.9040538],[12.427678,43.9032957],[12.428129,43.90329],[12.4288576,43.9034009],[12.4288361,43.9029729],[12.4289416,43.9028402],[12.4290895,43.9027577],[12.4292262,43.9026742],[12.4293889,43.9025268],[12.4295566,43.9022734],[12.4298267,43.9019849],[12.4303662,43.9018807],[12.4305308,43.9018472],[12.430744,43.9018104],[12.430938,43.9018659],[12.4311446,43.9018794],[12.4315288,43.9017936],[12.432611,43.9013637],[12.4326811,43.9015053],[12.432882,43.9015708],[12.4332117,43.9016181],[12.4333038,43.901674],[12.4334886,43.9017567],[12.4337406,43.9018416],[12.4338407,43.9019535],[12.4341884,43.9023414],[12.4344058,43.9026892],[12.4347224,43.903295],[12.4347555,43.9032991],[12.4359089,43.9035297],[12.4362228,43.9031421],[12.4363065,43.9030375],[12.4364324,43.9032137],[12.4366636,43.9033699],[12.4371055,43.9034487],[12.437286,43.9032667],[12.4375524,43.9031362],[12.437775,43.9033385],[12.4382323,43.9034619],[12.4377369,43.9041904],[12.4384917,43.904702],[12.439801,43.9053326],[12.4404469,43.905963],[12.4420244,43.9061347],[12.4428837,43.905923],[12.4432411,43.9056634],[12.4435275,43.905043],[12.4438789,43.9046058],[12.4441333,43.9040523],[12.4447812,43.903915],[12.4458499,43.9036621],[12.4465017,43.9033589],[12.4474652,43.9027941],[12.4479794,43.9024275],[12.4482975,43.9016841],[12.4484038,43.9013346],[12.4482201,43.9007895],[12.4482643,43.9005631],[12.4488278,43.8999545],[12.4484877,43.8996107],[12.4479516,43.899693],[12.4479174,43.8993073],[12.4490265,43.8987531],[12.449448,43.8985388],[12.4492073,43.8978213],[12.4492568,43.8975993],[12.4496945,43.8969874],[12.4500352,43.896743],[12.4503472,43.896432],[12.450648,43.8960897],[12.4511191,43.8956794],[12.451747,43.8953948],[12.4520791,43.8952722],[12.4527057,43.8951272],[12.4530616,43.8948239],[12.4534702,43.8945684],[12.4537394,43.8944342],[12.4541813,43.8942183],[12.4545624,43.8940267],[12.4550049,43.8939278],[12.4554713,43.8941352],[12.4559361,43.8940677],[12.4564195,43.8939958],[12.4567041,43.8938964],[12.4568165,43.8937694],[12.4570643,43.8936958],[12.457382,43.8936412],[12.4574857,43.893632],[12.4575962,43.8936325],[12.4576534,43.8936629],[12.4576302,43.8938575],[12.4577479,43.8938801],[12.4579776,43.8939196],[12.4580909,43.8939212],[12.45855,43.8942964],[12.4587649,43.8940997],[12.4588782,43.8941419],[12.4590389,43.8943019],[12.4597223,43.8945006],[12.4602173,43.8945576],[12.4606963,43.8944441],[12.4610893,43.8942971],[12.4615982,43.8940566],[12.4621282,43.893856],[12.462394,43.8937714],[12.4626256,43.8941155],[12.4628006,43.8944552],[12.4629654,43.8947581],[12.4634766,43.8946127],[12.463816,43.8943772],[12.4652402,43.8948022],[12.4665183,43.8957164],[12.4676974,43.8953262],[12.4679717,43.8954036],[12.4693908,43.8957865],[12.4698595,43.8973668],[12.4699145,43.8975403],[12.4701438,43.8968514],[12.4707055,43.896119],[12.4721618,43.8965176],[12.4726442,43.8965705],[12.4730891,43.896674],[12.4735964,43.8967261],[12.4741171,43.8967958],[12.474771,43.8969064],[12.4754075,43.896932],[12.4762394,43.8969472],[12.4769506,43.896921],[12.4777098,43.8969159],[12.4782476,43.89685],[12.4789342,43.8968291],[12.4795937,43.8968225],[12.4801434,43.8968012],[12.4807656,43.8967958],[12.481352,43.8967644],[12.4819752,43.8967228],[12.4826738,43.8966925],[12.4833004,43.8966554],[12.4838348,43.8966391],[12.484336,43.8965878],[12.4843995,43.8965826],[12.4850361,43.8965304],[12.4857569,43.8965084],[12.4862566,43.8964841],[12.4866186,43.896446],[12.4869552,43.8964538],[12.4874043,43.8964693],[12.4876113,43.897136],[12.4878731,43.8977807],[12.4880311,43.8984601],[12.4881244,43.8988848],[12.4883078,43.8995725],[12.4884615,43.9000179],[12.4887119,43.900627],[12.4890319,43.9012564],[12.4892917,43.9019192],[12.4894967,43.9023901],[12.4895996,43.9025535],[12.4899251,43.9028496],[12.4901861,43.9031612],[12.4905834,43.9034597],[12.4908485,43.9036812],[12.4911499,43.9039375],[12.4916222,43.9045083],[12.4918501,43.9047849],[12.492073,43.9050842],[12.4921867,43.9053778],[12.4922476,43.905673],[12.4922879,43.9058834],[12.4924539,43.9061124],[12.4926301,43.906305],[12.492771,43.9065303],[12.4928222,43.9067673],[12.4928864,43.9070669],[12.4929085,43.9073904],[12.4929754,43.9076704],[12.4934631,43.9078775],[12.4938764,43.9080765],[12.4943635,43.9083677],[12.494824,43.9086281],[12.4951406,43.9088255],[12.4954397,43.9090954],[12.4955687,43.9093301],[12.4955045,43.9096156],[12.4952082,43.9098723],[12.4948695,43.9099907],[12.4944892,43.9100879],[12.4937319,43.910075],[12.4933184,43.9101372],[12.4933592,43.9106221],[12.4934557,43.9109928],[12.4934899,43.9113654],[12.4934503,43.9119653],[12.4932961,43.9124466],[12.4932398,43.912995],[12.4934924,43.913427],[12.4934401,43.9137572],[12.4933949,43.9142087],[12.4933937,43.9145598],[12.4934381,43.9147688],[12.4934668,43.9149042],[12.4933905,43.9149622],[12.4933812,43.9151168],[12.4934481,43.9153729],[12.4934199,43.915517],[12.4929932,43.915509],[12.4928817,43.9156075],[12.4927763,43.9158111],[12.4926442,43.9159545],[12.4924858,43.9161226],[12.4924693,43.9162726],[12.4924419,43.9166256],[12.4924551,43.9169549],[12.4924896,43.9172181],[12.4925258,43.9174891],[12.4926573,43.9177374],[12.4927949,43.9180272],[12.4928101,43.9181674],[12.4929354,43.9184486],[12.4932337,43.9187646],[12.4933746,43.9188571],[12.4934933,43.9191033],[12.4937621,43.9195206],[12.494036,43.9198687],[12.4942328,43.9201925],[12.4950216,43.9204965],[12.4955659,43.9208257],[12.4959782,43.9209976],[12.4963543,43.921259],[12.4964785,43.921514],[12.4964671,43.9217329],[12.496521,43.9219958],[12.4966331,43.9221072],[12.4968486,43.9222557],[12.4970337,43.9224825],[12.4972351,43.9227087],[12.497393,43.9228159],[12.4978516,43.9228509],[12.4986512,43.9228277],[12.4989127,43.9228292],[12.4990948,43.9229563],[12.4994955,43.9230969],[12.5009701,43.9231009],[12.5013864,43.9231101],[12.5018771,43.9233251],[12.5021433,43.9233547],[12.5026027,43.9233753],[12.5029543,43.9234923],[12.5032693,43.9236394],[12.5036954,43.9242034],[12.5039197,43.9244983],[12.5040106,43.9248619],[12.5040548,43.9251375],[12.5039773,43.9254781],[12.5039044,43.9257516],[12.5038903,43.9261135],[12.503861,43.9266472],[12.5039842,43.9270909],[12.5040987,43.9274534],[12.5046302,43.9279833],[12.5048,43.9282457],[12.5048249,43.9286164],[12.5048393,43.9289732],[12.5048556,43.9293471],[12.5049954,43.9298014],[12.5053331,43.9303238],[12.5056169,43.9304582],[12.5061238,43.9303927],[12.5063061,43.9304836],[12.5063981,43.9306578],[12.5063669,43.9308317],[12.5064933,43.9311314],[12.5070432,43.9316003],[12.5072838,43.9318634],[12.5073391,43.9322671],[12.5073732,43.9325092],[12.5074211,43.9327195],[12.507453,43.9327835],[12.5075796,43.93322],[12.5077487,43.9337745],[12.507842,43.9338621],[12.5083215,43.9340691],[12.5088401,43.9342056],[12.5091959,43.9342089],[12.5095298,43.9343538],[12.5097895,43.9348087],[12.5098625,43.9349455],[12.5101057,43.9353257],[12.5104642,43.9357412],[12.5108611,43.9360764],[12.5110155,43.9363234],[12.5116961,43.936648],[12.5119552,43.9368665],[12.5119474,43.9371603],[12.5122025,43.9374579],[12.5123648,43.9376507],[12.5127698,43.9378003],[12.5130938,43.9379914],[12.5132652,43.9380969],[12.5134572,43.9382154],[12.5139621,43.9385455],[12.5143647,43.9388679],[12.5147519,43.9391941],[12.5150168,43.9394311],[12.5153673,43.9397272],[12.5155494,43.9398893],[12.516219,43.9403385],[12.5169591,43.9408539],[12.5159791,43.9415147],[12.5158882,43.9423137],[12.5158451,43.942848],[12.5158093,43.9434767],[12.5158009,43.9435618],[12.5159226,43.9435769],[12.5158759,43.9441846],[12.5156225,43.9445415],[12.5153941,43.9449663],[12.5154701,43.9453781],[12.5152562,43.9456575],[12.5151735,43.9457287],[12.5149012,43.9464495],[12.5144643,43.9475735],[12.5141489,43.9484819],[12.5140782,43.9487298],[12.513923,43.9490579],[12.5136114,43.9497471],[12.5134304,43.9500844],[12.5132045,43.9503137],[12.5130559,43.9504025],[12.5128462,43.9510374],[12.5124127,43.9515327],[12.5122567,43.9516966],[12.5107935,43.9534386],[12.5105491,43.953725],[12.5101306,43.9541025],[12.5096912,43.9545122],[12.5088561,43.9552559],[12.5086121,43.9555262],[12.5083105,43.9558545],[12.5078196,43.956406],[12.5072908,43.9569843],[12.5063687,43.9580802],[12.5065728,43.9584493],[12.5069276,43.9589936],[12.5073083,43.9596327],[12.507704,43.9602459],[12.5079542,43.9606399],[12.5084446,43.9614682],[12.5090131,43.9623985],[12.5091035,43.9625599],[12.5092669,43.9627065],[12.5091987,43.9628504],[12.5091259,43.9630367],[12.5090556,43.9631957],[12.5087252,43.9631694],[12.5084641,43.9634334],[12.5078177,43.9639665],[12.5075133,43.9644631],[12.5074703,43.9647097],[12.507455,43.9654219],[12.5073775,43.9665431],[12.5073281,43.9674572],[12.5073197,43.9680476],[12.5073535,43.9682049],[12.5070728,43.9687796],[12.5070396,43.9688312],[12.5072007,43.9688839],[12.5069842,43.9694014],[12.5065589,43.9700386],[12.5059341,43.9711009],[12.5077806,43.9714053],[12.5078693,43.9711953],[12.5084376,43.9713509],[12.5086356,43.9714583],[12.5091718,43.9714162],[12.509663,43.971538],[12.5100154,43.9716166],[12.5104775,43.9719146],[12.510732,43.9720777],[12.5107884,43.9721645],[12.5110013,43.9721173],[12.5112905,43.9721082],[12.5116077,43.9721317],[12.511813,43.9721439],[12.5118333,43.9722145],[12.5119666,43.9723585],[12.5122071,43.9726405],[12.5123185,43.9728222],[12.5123477,43.9730057],[12.5123333,43.9732034],[12.5122925,43.9734166],[12.5124036,43.9736352],[12.5122382,43.9738573],[12.5122259,43.9740536],[12.5119629,43.9744827],[12.5118222,43.9746213],[12.5116614,43.9749263],[12.5114667,43.9751677],[12.5114279,43.9754331],[12.5112963,43.9761405],[12.5113296,43.976319],[12.5112736,43.9764372],[12.511263,43.9767481],[12.5113037,43.9772065],[12.511397,43.977351],[12.5113963,43.9774437],[12.5113222,43.9778595],[12.5111148,43.9781207],[12.5108346,43.9783527],[12.5108519,43.9785444],[12.5106266,43.9791067],[12.5104889,43.9794425],[12.5106185,43.9798849],[12.5105519,43.9799995],[12.5105365,43.9803551],[12.5104183,43.9805051],[12.510214,43.9806163],[12.5101381,43.9807237],[12.510015,43.9809254],[12.510034,43.9809555],[12.5102015,43.9809745],[12.5102475,43.9810483],[12.5102588,43.9811263],[12.5103069,43.9812622],[12.5102647,43.9813637],[12.5102402,43.9814514],[12.5104995,43.9815367],[12.5109328,43.9817046],[12.5109276,43.9817809],[12.5110389,43.9819649],[12.5113775,43.9823715],[12.5114883,43.9825174],[12.511865,43.9826963],[12.5118587,43.9827972],[12.5118105,43.9829597],[12.5118661,43.983093],[12.5120675,43.9832659],[12.5121384,43.9833887],[12.5121836,43.9837395],[12.5124452,43.9839074],[12.5125974,43.983997],[12.5127961,43.9841184],[12.5131695,43.9843492],[12.5133671,43.9844499],[12.5133697,43.9844494],[12.5137395,43.9845243],[12.513966,43.9845213],[12.5144215,43.9845293],[12.5145512,43.9845853],[12.5148105,43.9846253],[12.5154104,43.9846386],[12.5156342,43.9846059],[12.5159305,43.9845966],[12.5156903,43.9854712],[12.5155251,43.9862494],[12.5155141,43.9863014],[12.5153554,43.9867769],[12.5150944,43.9878675],[12.5149437,43.9884118],[12.5149507,43.9884793],[12.5149907,43.9888642],[12.5150723,43.9895089],[12.5147668,43.9900843],[12.5144765,43.9907204],[12.5144132,43.9908204],[12.5142816,43.9908752],[12.5134213,43.9913202],[12.5132873,43.991185],[12.5129521,43.9911487],[12.5127216,43.9911291],[12.5117344,43.9910531],[12.5107416,43.9909717],[12.5098677,43.9909031],[12.5096899,43.9909815],[12.5094134,43.9911131],[12.5093365,43.9913326],[12.5094193,43.9916349],[12.5097408,43.9919091],[12.5095662,43.992042],[12.5089747,43.9919233],[12.5088315,43.9918376],[12.5085345,43.9916849],[12.5082237,43.9915496],[12.5081397,43.9914613],[12.5080711,43.9913831],[12.5080347,43.9913375],[12.5080207,43.9913128],[12.5079849,43.9912577],[12.5079095,43.991186],[12.5078572,43.9911324],[12.5078308,43.9910901],[12.5075303,43.9910781],[12.5071293,43.9912822],[12.5065315,43.991268],[12.5060284,43.9907801],[12.5058404,43.9906374],[12.5056054,43.9906631],[12.5055682,43.9906638],[12.5051036,43.9907806],[12.5048317,43.990863],[12.5046128,43.9910148],[12.5045411,43.9911271],[12.5039372,43.9908534],[12.5035865,43.9906839],[12.5037983,43.9905951],[12.5045694,43.9903015],[12.5041949,43.9901346],[12.5041874,43.9897778],[12.5041536,43.9893638],[12.5040069,43.9890359],[12.5039854,43.9889835],[12.5032269,43.9889538],[12.5030942,43.988884],[12.5031258,43.9887018],[12.5032447,43.9886153],[12.503519,43.9882949],[12.5035375,43.9881897],[12.5032111,43.9879429],[12.5026066,43.9875041],[12.5024513,43.9870711],[12.5021776,43.986868],[12.5020711,43.9867853],[12.5015194,43.9868346],[12.501098,43.9867901],[12.5008659,43.9867633],[12.5002972,43.9867022],[12.4998209,43.9865098],[12.499465,43.9863545],[12.4992683,43.9859953],[12.4991323,43.9857509],[12.4989953,43.9859711],[12.4989102,43.9861079],[12.4983202,43.9863395],[12.4981291,43.9861626],[12.4980466,43.9860731],[12.4976209,43.986177],[12.4974516,43.9862103],[12.497177,43.9862772],[12.4970019,43.9863177],[12.4968111,43.9861416],[12.4966522,43.9862126],[12.4965028,43.9862432],[12.4962655,43.9863017],[12.4961102,43.9862857],[12.4955083,43.9857079],[12.4949959,43.9850728],[12.4948326,43.9850112],[12.4946943,43.9848888],[12.4947344,43.9846864],[12.4947969,43.9845952],[12.4947281,43.9845592],[12.4946105,43.9845774],[12.4945261,43.9846178],[12.494434,43.9846249],[12.4942966,43.9844879],[12.4942314,43.9843428],[12.4941965,43.9842924],[12.4940789,43.9841816],[12.4940278,43.9841281],[12.4938721,43.9840333],[12.493704,43.9839686],[12.4935711,43.9838168],[12.4932684,43.9836056],[12.4930735,43.9834454],[12.4928386,43.983243],[12.49259,43.982963],[12.4924554,43.9827708],[12.4923123,43.9828196],[12.4922267,43.9828749],[12.491839,43.9830001],[12.4917652,43.9829927],[12.4916901,43.982966],[12.491615,43.9830341],[12.4913435,43.9831382],[12.4913431,43.9831529],[12.4910551,43.9832626],[12.4907711,43.9832897],[12.4904713,43.9833183],[12.4901791,43.9832812],[12.4899503,43.9831904],[12.4898041,43.9831132],[12.4895657,43.9830046],[12.4893948,43.982922],[12.4893065,43.9828506],[12.4891393,43.9827664],[12.4890062,43.9827074],[12.4889294,43.9826575],[12.4888036,43.982587],[12.4887033,43.9825179],[12.4885996,43.9824568],[12.4885687,43.9824367],[12.4885033,43.9824767],[12.4884094,43.9824234],[12.4882312,43.9823414],[12.4880993,43.9822756],[12.4880223,43.9822385],[12.4879303,43.9822001],[12.4878314,43.9821511],[12.4877227,43.9820968],[12.487619,43.9820545],[12.4874705,43.9819832],[12.4872886,43.9819081],[12.4871718,43.981901],[12.4869288,43.9818475],[12.4868531,43.9818326],[12.4867382,43.9818036],[12.4865198,43.9817291],[12.4864565,43.981732],[12.4863531,43.981704],[12.4860626,43.9816169],[12.4857723,43.9815125],[12.4854828,43.981409],[12.4852973,43.9813613],[12.4848937,43.9812668],[12.4847528,43.9812322],[12.4846579,43.9812085],[12.484565,43.9811915],[12.4845017,43.9811725],[12.4844299,43.9811607],[12.4842251,43.9811265],[12.4840479,43.9811033],[12.4838316,43.9810343],[12.4836754,43.9809897],[12.4835126,43.9809604],[12.483381,43.9809386],[12.4832502,43.9809149],[12.483137,43.9808915],[12.483043,43.9808671],[12.4829368,43.9808465],[12.4828902,43.9808671],[12.4826693,43.9808838],[12.4825595,43.9808915],[12.4824838,43.9809008],[12.4823355,43.9809133],[12.4822365,43.9809243],[12.4820556,43.9809343],[12.4818715,43.980952],[12.4816808,43.9810802],[12.4814607,43.9810432],[12.4812762,43.9810096],[12.4810764,43.9809692],[12.4809829,43.9809482],[12.480602,43.9808841],[12.4805342,43.9808683],[12.4804692,43.980946],[12.4803905,43.9809191],[12.4801524,43.9808235],[12.4800559,43.9807762],[12.4797823,43.9806729],[12.4795651,43.980584],[12.4794495,43.9805663],[12.4793108,43.9806161],[12.4792013,43.9807155],[12.4791625,43.9807627],[12.4790444,43.9806937],[12.4788772,43.9806265],[12.4787168,43.9805558],[12.478495,43.9804669],[12.4782532,43.9803774],[12.4781198,43.9804372],[12.4780254,43.9804183],[12.4779744,43.9804289],[12.4778347,43.9804569],[12.4777198,43.980406],[12.477622,43.9803178],[12.4775569,43.9802636],[12.4775425,43.9802322],[12.4774501,43.9802021],[12.4773856,43.98016],[12.4772061,43.9801231],[12.4771144,43.9800985],[12.4769293,43.9800238],[12.4767949,43.979994],[12.4767454,43.9799541],[12.4766763,43.9799398],[12.4765136,43.9798561],[12.4764288,43.9798069],[12.4763225,43.9798026],[12.4762251,43.9798099],[12.4761103,43.979797],[12.4760764,43.9797851],[12.4758087,43.9798413],[12.4757624,43.9798189],[12.4756084,43.9798201],[12.4755362,43.97977],[12.4754469,43.9797364],[12.475398,43.9797001],[12.4753138,43.9796266],[12.4752124,43.9795241],[12.4751667,43.9795395],[12.4750486,43.9795162],[12.4746851,43.9794709],[12.4745825,43.9794345],[12.4744928,43.9793835],[12.4743563,43.9793006],[12.4741667,43.9792375],[12.4739272,43.9791877],[12.4738423,43.9790997],[12.4737864,43.9790214],[12.4736723,43.9790176],[12.4735329,43.978984],[12.4734138,43.9789432],[12.4732587,43.9788577],[12.473154,43.9788158],[12.4730214,43.978746],[12.4729237,43.978662],[12.4727497,43.9786123],[12.4726422,43.9785891],[12.4725351,43.9785823],[12.4723987,43.9785834],[12.4723118,43.9785818],[12.4722146,43.9785592],[12.472083,43.9785384],[12.4719087,43.9785008],[12.4717857,43.9784852],[12.4717016,43.9784291],[12.4716305,43.9784124],[12.4716009,43.9783779],[12.4715062,43.978311],[12.4713957,43.9782541],[12.4713136,43.97824],[12.4712329,43.978184],[12.4710751,43.9781268],[12.4710174,43.9780767],[12.4709481,43.9780645],[12.4709228,43.9780011],[12.4707582,43.977939],[12.4706735,43.9779309],[12.4705632,43.9778435],[12.4704384,43.9777674],[12.4703226,43.9777974],[12.4701407,43.9777273],[12.4700529,43.9777252],[12.4699659,43.9777185],[12.4698846,43.977719],[12.4697903,43.9776951],[12.4696616,43.9776342],[12.469509,43.97757],[12.4694359,43.9775149],[12.4693309,43.9774873],[12.4692465,43.9774213],[12.4690226,43.977219],[12.4690173,43.9771455],[12.4689033,43.9770862],[12.4687856,43.9770609],[12.46859,43.9770097],[12.4684437,43.9769146],[12.4683901,43.9768402],[12.4683389,43.9766621],[12.4683479,43.9766124],[12.4682471,43.9765012],[12.4677458,43.9762498],[12.467183,43.9759944],[12.4668769,43.975855],[12.4664136,43.9756714],[12.465597,43.9754009],[12.4646563,43.975092],[12.464053,43.974849],[12.46363,43.9746863],[12.4627989,43.9742767],[12.4615549,43.9736242],[12.4601216,43.9728966],[12.4595482,43.9724463],[12.4580968,43.9724128],[12.4573564,43.9715216],[12.4569393,43.9712924],[12.4563348,43.9709998],[12.4556511,43.9706515],[12.4536979,43.9696762],[12.453261,43.9692727],[12.4530115,43.9690842],[12.4525763,43.9687314],[12.4518859,43.9691578],[12.4508731,43.9682939],[12.4500671,43.9674747],[12.4494803,43.9669734],[12.4488121,43.9660154],[12.4487356,43.9658822],[12.4481916,43.9660531],[12.4474391,43.96627],[12.4472827,43.9660559],[12.4464731,43.965762],[12.4464517,43.9656486],[12.4458178,43.9650015],[12.4451261,43.9642978],[12.444433,43.9635837],[12.4444949,43.9633697],[12.4430632,43.9622292],[12.4424501,43.9615686],[12.4421294,43.9614109],[12.4415251,43.961386],[12.4397138,43.9605618],[12.4400977,43.9602655],[12.4400194,43.960089],[12.4400117,43.9599909],[12.4397449,43.9598139],[12.4391095,43.9593988],[12.4386545,43.9590414],[12.4382931,43.9587236],[12.4377856,43.9582643],[12.4375792,43.9579863],[12.4369833,43.9571881],[12.4365217,43.9566339],[12.4357657,43.9566888],[12.4355916,43.9566945],[12.4355438,43.9566961],[12.4352868,43.9567044],[12.4340497,43.9568011],[12.4318867,43.9571334],[12.4318657,43.9572316],[12.4313782,43.9572301],[12.4311563,43.9570399],[12.431017,43.9569914],[12.4308134,43.9570053],[12.4300693,43.9570664],[12.4299205,43.957061],[12.4282589,43.9572041],[12.4271281,43.9573169],[12.4261985,43.9573996],[12.4250685,43.9575591],[12.4247128,43.9576038],[12.4246795,43.9574334],[12.4243179,43.9574846],[12.4239047,43.9575695],[12.4234773,43.957528],[12.423361,43.9574925],[12.4220758,43.9576247],[12.4217791,43.9576818],[12.4210884,43.9577626],[12.4206153,43.9577349],[12.4204306,43.9577376],[12.4201965,43.9577374],[12.4200912,43.9577373],[12.4196306,43.9578868],[12.4196565,43.9573715],[12.4196713,43.9571395],[12.4192513,43.9566687],[12.4189504,43.9561998],[12.4182399,43.955595],[12.4178948,43.9553512],[12.4171451,43.9545933],[12.4169892,43.9543258],[12.4171882,43.9540953],[12.4163675,43.9532903],[12.4163545,43.9531447],[12.4159852,43.9528503],[12.4159217,43.9528117],[12.4154829,43.9529449],[12.4151653,43.9530359],[12.4149677,43.9530927],[12.4149304,43.9531331],[12.4148811,43.953125],[12.4145379,43.9532291],[12.4144123,43.9532396],[12.4142731,43.9532153],[12.41418,43.9531577],[12.414074,43.9529365],[12.4140151,43.9528225],[12.4139392,43.9527673],[12.4138583,43.9527459],[12.4135523,43.952743],[12.4130277,43.9527775],[12.4127043,43.9527745],[12.4121609,43.9525731],[12.4119748,43.9524926],[12.4117498,43.9524533],[12.4115545,43.952492],[12.4112342,43.9527282],[12.4108504,43.9529018],[12.4101185,43.9532216],[12.4091636,43.9533451],[12.4085341,43.9534015],[12.4078044,43.9536165],[12.4075408,43.953749],[12.407204,43.9539747],[12.4069141,43.9541277],[12.4061391,43.9543793],[12.4055303,43.954524],[12.4052623,43.9546217],[12.4052371,43.9547481],[12.405075,43.9548113],[12.404913,43.9549344],[12.4048139,43.9550386],[12.4046067,43.955414],[12.4046194,43.9556266],[12.4042688,43.9558727],[12.4040649,43.955562],[12.4040606,43.9555596],[12.4037455,43.9551521],[12.4034836,43.9547622],[12.4032103,43.9543102],[12.4029955,43.9537985],[12.4028245,43.9536183],[12.4025729,43.9534876],[12.402433,43.9532795]]]}}]}